{
  "type": "FeatureCollection",
  "features": [
    {
      "type": "Feature",
      "properties": {
        "norad_id": 66862,
        "name": "STARLINK-35974",
        "group": "last-30-days",
        "lat": 7.917549748043703,
        "lon": 83.52372775665069,
        "alt_km": 344.6879189757574,
        "timestamp": "2025-12-20T11:30:27.106632+00:00",
        "meta_object_name": "STARLINK-35974",
        "meta_object_id": "2025-281Q",
        "meta_epoch": "2025-12-20T04:00:00.999072",
        "meta_mean_motion": 15.75419242,
        "meta_eccentricity": 0.0001491,
        "meta_inclination": 43.0009,
        "meta_ra_of_asc_node": 76.8387,
        "meta_arg_of_pericenter": 275.6784,
        "meta_mean_anomaly": 120.3018,
        "meta_ephemeris_type": 0,
        "meta_classification_type": "U",
        "meta_norad_cat_id": 66862,
        "meta_element_set_no": 999,
        "meta_rev_at_epoch": 248,
        "meta_bstar": -0.0090122,
        "meta_mean_motion_dot": -0.01264546,
        "meta_mean_motion_ddot": 0,
        "tle_line1": "1 66862U 25281Q   25354.16667823 -.01264546  00000+0 -90122-2 0  9999",
        "tle_line2": "2 66862  43.0009  76.8387 0001491 275.6784 120.3018 15.75419242  2488"
      },
      "geometry": {
        "type": "Point",
        "coordinates": [
          83.52372775665069,
          7.917549748043703
        ]
      }
    },
    {
      "type": "Feature",
      "properties": {
        "norad_id": 66863,
        "name": "STARLINK-36134",
        "group": "last-30-days",
        "lat": 10.493744916517974,
        "lon": 86.3962013473668,
        "alt_km": 344.290749531795,
        "timestamp": "2025-12-20T11:30:27.106642+00:00",
        "meta_object_name": "STARLINK-36134",
        "meta_object_id": "2025-281R",
        "meta_epoch": "2025-12-20T04:00:00.999072",
        "meta_mean_motion": 15.75424446,
        "meta_eccentricity": 0.0001587,
        "meta_inclination": 43.0009,
        "meta_ra_of_asc_node": 76.8292,
        "meta_arg_of_pericenter": 280.0047,
        "meta_mean_anomaly": 119.8063,
        "meta_ephemeris_type": 0,
        "meta_classification_type": "U",
        "meta_norad_cat_id": 66863,
        "meta_element_set_no": 999,
        "meta_rev_at_epoch": 258,
        "meta_bstar": -0.0090436,
        "meta_mean_motion_dot": -0.01268816,
        "meta_mean_motion_ddot": 0,
        "tle_line1": "1 66863U 25281R   25354.16667823 -.01268816  00000+0 -90436-2 0  9992",
        "tle_line2": "2 66863  43.0009  76.8292 0001587 280.0047 119.8063 15.75424446  2588"
      },
      "geometry": {
        "type": "Point",
        "coordinates": [
          86.3962013473668,
          10.493744916517974
        ]
      }
    },
    {
      "type": "Feature",
      "properties": {
        "norad_id": 66864,
        "name": "STARLINK-36070",
        "group": "last-30-days",
        "lat": 11.768385531752651,
        "lon": 87.8444813529537,
        "alt_km": 344.09165387637313,
        "timestamp": "2025-12-20T11:30:27.106652+00:00",
        "meta_object_name": "STARLINK-36070",
        "meta_object_id": "2025-281S",
        "meta_epoch": "2025-12-20T04:00:00.999072",
        "meta_mean_motion": 15.75426319,
        "meta_eccentricity": 0.0001312,
        "meta_inclination": 43.0009,
        "meta_ra_of_asc_node": 76.8238,
        "meta_arg_of_pericenter": 281.5697,
        "meta_mean_anomaly": 120.1551,
        "meta_ephemeris_type": 0,
        "meta_classification_type": "U",
        "meta_norad_cat_id": 66864,
        "meta_element_set_no": 999,
        "meta_rev_at_epoch": 262,
        "meta_bstar": -0.009059,
        "meta_mean_motion_dot": -0.01270724,
        "meta_mean_motion_ddot": 0,
        "tle_line1": "1 66864U 25281S   25354.16667823 -.01270724  00000+0 -90590-2 0  9995",
        "tle_line2": "2 66864  43.0009  76.8238 0001312 281.5697 120.1551 15.75426319  2625"
      },
      "geometry": {
        "type": "Point",
        "coordinates": [
          87.8444813529537,
          11.768385531752651
        ]
      }
    },
    {
      "type": "Feature",
      "properties": {
        "norad_id": 66865,
        "name": "STARLINK-36117",
        "group": "last-30-days",
        "lat": 14.303313197098293,
        "lon": 90.7954207841758,
        "alt_km": 344.0877858654003,
        "timestamp": "2025-12-20T11:30:27.106662+00:00",
        "meta_object_name": "STARLINK-36117",
        "meta_object_id": "2025-281T",
        "meta_epoch": "2025-12-20T04:00:00.999072",
        "meta_mean_motion": 15.75423674,
        "meta_eccentricity": 0.0001569,
        "meta_inclination": 43.0009,
        "meta_ra_of_asc_node": 76.8148,
        "meta_arg_of_pericenter": 268.2185,
        "meta_mean_anomaly": 137.3439,
        "meta_ephemeris_type": 0,
        "meta_classification_type": "U",
        "meta_norad_cat_id": 66865,
        "meta_element_set_no": 999,
        "meta_rev_at_epoch": 259,
        "meta_bstar": -0.0090467,
        "meta_mean_motion_dot": -0.01269162,
        "meta_mean_motion_ddot": 0,
        "tle_line1": "1 66865U 25281T   25354.16667823 -.01269162  00000+0 -90467-2 0  9993",
        "tle_line2": "2 66865  43.0009  76.8148 0001569 268.2185 137.3439 15.75423674  2596"
      },
      "geometry": {
        "type": "Point",
        "coordinates": [
          90.7954207841758,
          14.303313197098293
        ]
      }
    },
    {
      "type": "Feature",
      "properties": {
        "norad_id": 66866,
        "name": "STARLINK-36126",
        "group": "last-30-days",
        "lat": 15.555862636202649,
        "lon": 92.29277361904276,
        "alt_km": 343.8081073293897,
        "timestamp": "2025-12-20T11:30:27.106671+00:00",
        "meta_object_name": "STARLINK-36126",
        "meta_object_id": "2025-281U",
        "meta_epoch": "2025-12-20T04:00:00.999072",
        "meta_mean_motion": 15.75425081,
        "meta_eccentricity": 0.0001351,
        "meta_inclination": 43.0009,
        "meta_ra_of_asc_node": 76.8095,
        "meta_arg_of_pericenter": 271.8265,
        "meta_mean_anomaly": 135.6537,
        "meta_ephemeris_type": 0,
        "meta_classification_type": "U",
        "meta_norad_cat_id": 66866,
        "meta_element_set_no": 999,
        "meta_rev_at_epoch": 262,
        "meta_bstar": -0.0090644,
        "meta_mean_motion_dot": -0.01271361,
        "meta_mean_motion_ddot": 0,
        "tle_line1": "1 66866U 25281U   25354.16667823 -.01271361  00000+0 -90644-2 0  9995",
        "tle_line2": "2 66866  43.0009  76.8095 0001351 271.8265 135.6537 15.75425081  2624"
      },
      "geometry": {
        "type": "Point",
        "coordinates": [
          92.29277361904276,
          15.555862636202649
        ]
      }
    },
    {
      "type": "Feature",
      "properties": {
        "norad_id": 66867,
        "name": "STARLINK-36101",
        "group": "last-30-days",
        "lat": 16.79955416930745,
        "lon": 93.81144610686114,
        "alt_km": 343.3643261680618,
        "timestamp": "2025-12-20T11:30:27.106681+00:00",
        "meta_object_name": "STARLINK-36101",
        "meta_object_id": "2025-281V",
        "meta_epoch": "2025-12-20T04:00:00.999072",
        "meta_mean_motion": 15.75425197,
        "meta_eccentricity": 0.0001441,
        "meta_inclination": 43.0009,
        "meta_ra_of_asc_node": 76.8054,
        "meta_arg_of_pericenter": 287.0428,
        "meta_mean_anomaly": 122.3543,
        "meta_ephemeris_type": 0,
        "meta_classification_type": "U",
        "meta_norad_cat_id": 66867,
        "meta_element_set_no": 999,
        "meta_rev_at_epoch": 242,
        "meta_bstar": -0.0090755,
        "meta_mean_motion_dot": -0.01272807,
        "meta_mean_motion_ddot": 0,
        "tle_line1": "1 66867U 25281V   25354.16667823 -.01272807  00000+0 -90755-2 0  9995",
        "tle_line2": "2 66867  43.0009  76.8054 0001441 287.0428 122.3543 15.75425197  2426"
      },
      "geometry": {
        "type": "Point",
        "coordinates": [
          93.81144610686114,
          16.79955416930745
        ]
      }
    },
    {
      "type": "Feature",
      "properties": {
        "norad_id": 66868,
        "name": "STARLINK-36108",
        "group": "last-30-days",
        "lat": 18.029970205496404,
        "lon": 95.34620829759595,
        "alt_km": 343.3987496002155,
        "timestamp": "2025-12-20T11:30:27.106691+00:00",
        "meta_object_name": "STARLINK-36108",
        "meta_object_id": "2025-281W",
        "meta_epoch": "2025-12-20T04:00:00.999072",
        "meta_mean_motion": 15.75425667,
        "meta_eccentricity": 0.0001394,
        "meta_inclination": 43.0007,
        "meta_ra_of_asc_node": 76.7997,
        "meta_arg_of_pericenter": 276.6222,
        "meta_mean_anomaly": 134.6895,
        "meta_ephemeris_type": 0,
        "meta_classification_type": "U",
        "meta_norad_cat_id": 66868,
        "meta_element_set_no": 999,
        "meta_rev_at_epoch": 242,
        "meta_bstar": -0.0090445,
        "meta_mean_motion_dot": -0.012689,
        "meta_mean_motion_ddot": 0,
        "tle_line1": "1 66868U 25281W   25354.16667823 -.01268900  00000+0 -90445-2 0  9991",
        "tle_line2": "2 66868  43.0007  76.7997 0001394 276.6222 134.6895 15.75425667  2421"
      },
      "geometry": {
        "type": "Point",
        "coordinates": [
          95.34620829759595,
          18.029970205496404
        ]
      }
    }
  ]
}